#Pass ID: 20250120_224601_NOAA 20 (JPSS-1)
#Satellite: NOAA 20 (JPSS-1)
#Configuration: NOAA 20 (JPSS-1)
#Start time: 2025-01-20 22:46:06.234825

#LorettStation: 1.0.0 05.05.2024
#Station: Regia
#Location: 37.494653 lon 55.929028 lat
#TLE: 1 43013U 17073A   25020.57468429  .00000239  00000+0  13430-3 0  9990
#TLE: 2 43013  98.7292 321.0527 0000979  19.0177 341.1036 14.19541224371743

#Time	Az	El	Level	SNR
#Closed at: 2025-01-20 22:46:01.236878